OBJECT_NAME,OBJECT_ID,EPOCH,MEAN_MOTION,ECCENTRICITY,INCLINATION,RA_OF_ASC_NODE,ARG_OF_PERICENTER,MEAN_ANOMALY,EPHEMERIS_TYPE,CLASSIFICATION_TYPE,NORAD_CAT_ID,ELEMENT_SET_NO,REV_AT_EPOCH,BSTAR,MEAN_MOTION_DOT,MEAN_MOTION_DDOT
STARLINK-31538,2024-073Q,2026-07-19T14:41:23.732736,15.27570295,.00011909,43.0013,292.8018,267.4034,92.6681,0,U,59525,999,12635,-.2539564E-5,-.332E-5,0
STARLINK-31564,2024-073R,2026-07-19T14:30:17.370144,15.27575633,.00014717,43.0011,292.7454,265.0301,95.0383,0,U,59526,999,12635,.9220369E-5,-.8E-7,0
STARLINK-31452,2024-073S,2026-07-19T06:08:15.733824,15.27574252,.00013847,43.0039,295.2852,267.6081,92.4612,0,U,59527,999,12629,.727703E-5,-.62E-6,0
STARLINK-31513,2024-073U,2026-07-19T06:05:14.952192,15.27574850,.00014794,43.0038,291.7744,268.5635,91.5047,0,U,59529,999,12633,.32369087E-4,.628E-5,0
STARLINK-31392,2024-073V,2026-07-19T13:33:08.021952,15.27580416,.00016289,43.0018,293.3027,271.7295,88.3370,0,U,59530,999,12634,.43203605E-4,.927E-5,0
STARLINK-31619,2024-073W,2026-07-19T14:46:57.008640,15.27570088,.00005,42.9997,292.8294,218.3146,141.7671,0,U,59531,999,12747,-.66005227E-4,-.2077E-4,0
STARLINK-31509,2024-073Y,2026-07-19T14:10:09.195744,15.27576704,.00015908,43.0026,293.5086,278.8389,81.2283,0,U,59533,999,12634,.15959531E-4,.177E-5,0
STARLINK-31734,2024-074A,2026-07-19T00:11:09.182688,15.27568124,.00005142,42.9999,311.0167,52.0447,308.0451,0,U,59534,999,12622,-.19436692E-4,-.796E-5,0
STARLINK-31738,2024-074B,2026-07-19T14:43:01.268832,15.27574775,.00012442,43.0016,314.6622,268.5633,91.5076,0,U,59535,999,12623,.43806902E-4,.943E-5,0
STARLINK-31721,2024-074C,2026-07-18T18:22:01.257312,15.27571172,.00012499,43.0021,323.0217,265.1209,94.9500,0,U,59536,999,12606,-.12500028E-4,-.606E-5,0
STARLINK-31737,2024-074D,2026-07-19T08:49:46.508160,15.27574870,.00010725,43.0018,319.8035,274.9086,85.1644,0,U,59537,999,12615,.14758791E-4,.144E-5,0
STARLINK-31539,2024-074F,2026-07-19T09:06:25.635168,15.27570291,.00013995,43.0034,319.8904,262.9186,97.1506,0,U,59539,999,12615,.55119042E-4,.1254E-4,0
STARLINK-31397,2024-074G,2026-07-19T01:36:00.154080,15.27571606,.00017438,43.0042,321.8429,276.9441,83.1212,0,U,59540,999,12610,.1951673E-4,.275E-5,0
STARLINK-31481,2024-074H,2026-07-19T08:09:03.856608,15.27577750,.00015523,42.9982,319.5859,198.5028,161.5768,0,U,59541,999,12615,.9516923E-5,0,0
STARLINK-31540,2024-074J,2026-07-19T14:51:35.571744,15.27580167,.00011698,43.0016,318.2470,268.0051,92.0667,0,U,59542,999,12619,.42285301E-4,.902E-5,0
STARLINK-31574,2024-074K,2026-07-19T09:11:58.684704,15.27576955,.00011227,43.0033,319.9178,256.4231,103.6495,0,U,59543,999,12615,.47868324E-4,.1055E-4,0
STARLINK-31556,2024-074L,2026-07-19T07:41:31.489440,15.27574169,.00014708,43.0044,320.3110,265.1748,94.8935,0,U,59544,999,12614,.23988156E-4,.398E-5,0
STARLINK-31582,2024-074M,2026-07-19T14:14:47.908320,15.27579275,.00014563,43.0043,318.9124,254.8869,105.1822,0,U,59545,999,12618,.39411367E-4,.822E-5,0
STARLINK-31519,2024-074N,2026-07-19T08:18:19.147680,15.27578703,.00013287,43.0020,319.6409,261.6029,98.4672,0,U,59546,999,12615,.21760143E-4,.337E-5,0
STARLINK-31736,2024-074P,2026-07-19T07:20:42.954144,15.27575548,.00014367,43.0031,313.2681,272.5195,87.5492,0,U,59547,999,12622,-.14824529E-4,-.67E-5,0
STARLINK-31675,2024-074Q,2026-07-19T14:57:08.960832,15.27563998,.00014283,43.0000,318.2761,278.4148,81.6542,0,U,59548,999,12619,-.18410857E-3,-.5322E-4,0
STARLINK-31722,2024-074R,2026-07-19T14:29:23.950752,15.27577049,.00009286,43.0011,318.1347,273.1720,86.9026,0,U,59549,999,12619,.9285362E-5,-.6E-7,0
STARLINK-31741,2024-074S,2026-07-19T14:40:29.941824,15.27576575,.00014444,43.0023,318.1921,268.4457,91.6229,0,U,59550,999,12619,-.21816924E-4,-.862E-5,0
STARLINK-31699,2024-074T,2026-07-19T15:00:50.788512,15.27575206,.00012581,43.0020,318.2950,268.4808,91.5900,0,U,59551,999,12619,.17636611E-4,.223E-5,0
STARLINK-31750,2024-074U,2026-07-19T09:00:52.781760,15.27571632,.00010554,43.0028,319.8597,290.5288,69.5450,0,U,59552,999,12615,.23889334E-4,.395E-5,0
STARLINK-31723,2024-074V,2026-07-19T15:11:56.726880,15.27575765,.00009818,43.0011,318.3516,264.7954,95.2786,0,U,59553,999,12619,.3894984E-4,.81E-5,0
STARLINK-31724,2024-074W,2026-07-19T05:49:56.205696,15.27583755,.00016395,43.0025,284.5492,277.7995,82.2671,0,U,59554,999,12654,-.60900448E-4,-.1938E-4,0
STARLINK-31730,2024-074X,2026-07-19T11:12:02.200032,15.27588844,.00017801,43.0034,319.6780,268.6976,91.3672,0,U,59555,999,12616,.10791976E-3,.2709E-4,0
STARLINK-31718,2024-074Y,2026-07-19T09:21:14.200416,15.27572860,.00013808,43.0039,319.9642,277.6139,82.4556,0,U,59556,999,12615,.14537569E-4,.138E-5,0
STARLINK-31747,2024-076A,2026-07-18T18:43:32.634912,15.27580298,.00032067,43.0052,338.0950,301.9831,58.0708,0,U,59564,999,12666,-.12769219E-4,-.614E-5,0
