STARLINK-31538          
1 59525U 24073Q   26200.61208024 -.00000332  00000+0 -25396-5 0  9994
2 59525  43.0013 292.8018 0001190 267.4034  92.6681 15.27570295126358
STARLINK-31564          
1 59526U 24073R   26200.60436771 -.00000008  00000+0  92204-5 0  9997
2 59526  43.0011 292.7454 0001471 265.0301  95.0383 15.27575633126350
STARLINK-31452          
1 59527U 24073S   26200.25573766 -.00000062  00000+0  72770-5 0  9991
2 59527  43.0039 295.2852 0001384 267.6081  92.4612 15.27574252126292
STARLINK-31513          
1 59529U 24073U   26200.25364528  .00000628  00000+0  32369-4 0  9993
2 59529  43.0038 291.7744 0001479 268.5635  91.5047 15.27574850126335
STARLINK-31392          
1 59530U 24073V   26200.56467618  .00000927  00000+0  43204-4 0  9995
2 59530  43.0018 293.3027 0001628 271.7295  88.3370 15.27580416126340
STARLINK-31619          
1 59531U 24073W   26200.61593760 -.00002077  00000+0 -66005-4 0  9994
2 59531  42.9997 292.8294 0000500 218.3146 141.7671 15.27570088127472
STARLINK-31509          
1 59533U 24073Y   26200.59038421  .00000177  00000+0  15960-4 0  9992
2 59533  43.0026 293.5086 0001590 278.8389  81.2283 15.27576704126349
STARLINK-31734          
1 59534U 24074A   26200.00774517 -.00000796  00000+0 -19437-4 0  9995
2 59534  42.9999 311.0167 0000514  52.0447 308.0451 15.27568124126226
STARLINK-31738          
1 59535U 24074B   26200.61320913  .00000943  00000+0  43807-4 0  9990
2 59535  43.0016 314.6622 0001244 268.5633  91.5076 15.27574775126233
STARLINK-31721          
1 59536U 24074C   26199.76529233 -.00000606  00000+0 -12500-4 0  9994
2 59536  43.0021 323.0217 0001249 265.1209  94.9500 15.27571172126069
STARLINK-31737          
1 59537U 24074D   26200.36789940  .00000144  00000+0  14759-4 0  9990
2 59537  43.0018 319.8035 0001072 274.9086  85.1644 15.27574870126151
STARLINK-31539          
1 59539U 24074F   26200.37946337  .00001254  00000+0  55119-4 0  9996
2 59539  43.0034 319.8904 0001399 262.9186  97.1506 15.27570291126159
STARLINK-31397          
1 59540U 24074G   26200.06666845  .00000275  00000+0  19517-4 0  9991
2 59540  43.0042 321.8429 0001743 276.9441  83.1212 15.27571606126102
STARLINK-31481          
1 59541U 24074H   26200.33962797  .00000000  00000+0  95169-5 0  9991
2 59541  42.9982 319.5859 0001552 198.5028 161.5768 15.27577750126151
STARLINK-31540          
1 59542U 24074J   26200.61916171  .00000902  00000+0  42285-4 0  9999
2 59542  43.0016 318.2470 0001169 268.0051  92.0667 15.27580167126196
STARLINK-31574          
1 59543U 24074K   26200.38331811  .00001055  00000+0  47868-4 0  9998
2 59543  43.0033 319.9178 0001122 256.4231 103.6495 15.27576955126153
STARLINK-31556          
1 59544U 24074L   26200.32050335  .00000398  00000+0  23988-4 0  9998
2 59544  43.0044 320.3110 0001470 265.1748  94.8935 15.27574169126148
STARLINK-31582          
1 59545U 24074M   26200.59361005  .00000822  00000+0  39411-4 0  9997
2 59545  43.0043 318.9124 0001456 254.8869 105.1822 15.27579275126187
STARLINK-31519          
1 59546U 24074N   26200.34605495  .00000337  00000+0  21760-4 0  9994
2 59546  43.0020 319.6409 0001328 261.6029  98.4672 15.27578703126158
STARLINK-31736          
1 59547U 24074P   26200.30605271 -.00000670  00000+0 -14825-4 0  9999
2 59547  43.0031 313.2681 0001436 272.5195  87.5492 15.27575548126229
STARLINK-31675          
1 59548U 24074Q   26200.62302038 -.00005322  00000+0 -18411-3 0  9993
2 59548  43.0000 318.2761 0001428 278.4148  81.6542 15.27563998126197
STARLINK-31722          
1 59549U 24074R   26200.60374943 -.00000006  00000+0  92854-5 0  9994
2 59549  43.0011 318.1347 0000928 273.1720  86.9026 15.27577049126198
STARLINK-31741          
1 59550U 24074S   26200.61145766 -.00000862  00000+0 -21817-4 0  9997
2 59550  43.0023 318.1921 0001444 268.4457  91.6229 15.27576575126190
STARLINK-31699          
1 59551U 24074T   26200.62558783  .00000223  00000+0  17637-4 0  9990
2 59551  43.0020 318.2950 0001258 268.4808  91.5900 15.27575206126199
STARLINK-31750          
1 59552U 24074U   26200.37561090  .00000395  00000+0  23889-4 0  9994
2 59552  43.0028 319.8597 0001055 290.5288  69.5450 15.27571632126155
STARLINK-31723          
1 59553U 24074V   26200.63329545  .00000810  00000+0  38950-4 0  9998
2 59553  43.0011 318.3516 0000981 264.7954  95.2786 15.27575765126196
STARLINK-31724          
1 59554U 24074W   26200.24301164 -.00001938  00000+0 -60900-4 0  9997
2 59554  43.0025 284.5492 0001639 277.7995  82.2671 15.27583755126545
STARLINK-31730          
1 59555U 24074X   26200.46669213  .00002709  00000+0  10792-3 0  9992
2 59555  43.0034 319.6780 0001780 268.6976  91.3672 15.27588844126165
STARLINK-31718          
1 59556U 24074Y   26200.38974769  .00000138  00000+0  14538-4 0  9996
2 59556  43.0039 319.9642 0001380 277.6139  82.4556 15.27572860126150
STARLINK-31747          
1 59564U 24076A   26199.78023883 -.00000614  00000+0 -12769-4 0  9995
2 59564  43.0052 338.0950 0003206 301.9831  58.0708 15.27580298126665
